[{"OBJECT_NAME":"STARLINK-5971","OBJECT_ID":"2023-083AT","EPOCH":"2026-03-09T22:00:01.999584","MEAN_MOTION":15.07520475,"ECCENTRICITY":0.00019136,"INCLINATION":43.0006,"RA_OF_ASC_NODE":67.5285,"ARG_OF_PERICENTER":276.0834,"MEAN_ANOMALY":121.2729,"EPHEMERIS_TYPE":0,"CLASSIFICATION_TYPE":"U","NORAD_CAT_ID":56917,"ELEMENT_SET_NO":999,"REV_AT_EPOCH":572,"BSTAR":0.0046083449,"MEAN_MOTION_DOT":0.00071685,"MEAN_MOTION_DDOT":0},{"OBJECT_NAME":"OBJECT D","OBJECT_ID":"2025-013D","EPOCH":"2026-03-09T22:45:56.369376","MEAN_MOTION":15.10588544,"ECCENTRICITY":0.0008827,"INCLINATION":97.6457,"RA_OF_ASC_NODE":238.3603,"ARG_OF_PERICENTER":18.3993,"MEAN_ANOMALY":341.7554,"EPHEMERIS_TYPE":0,"CLASSIFICATION_TYPE":"U","NORAD_CAT_ID":62732,"ELEMENT_SET_NO":999,"REV_AT_EPOCH":6229,"BSTAR":0.00036300228,"MEAN_MOTION_DOT":5.935e-5,"MEAN_MOTION_DDOT":0}]
